{"type": "FeatureCollection", "extracted": 5, "mapped": 4, "claims": 4, "features": [{"type": "Feature", "id": "ev_f736950a00ef38f7", "geometry": {"type": "Point", "coordinates": [-117.156944, 32.707333]}, "properties": {"event_id": "ev_f736950a00ef38f7", "mentions": 1, "event_ids": ["ev_f736950a00ef38f7"], "sources": ["The San Diego Union-Tribune 2024-06-10"], "venue_id": "wd-Q1194586", "venue_name": "Petco Park", "venue_name_as_written": "Petco Park", "operator": "Sodexo", "operator_normalized": "Sodexo", "sub_brand": null, "event_type": "won", "event_date": "2024-06-10", "event_year": 2024, "date_precision": "exact", "contract_value_usd": null, "extraction_confidence": 0.9, "needs_review": false, "source_publication": "The San Diego Union-Tribune", "source_date": "2024-06-10", "source_title": "Padres award Petco Park food contract to Sodexo", "source_file": "_rehearsal/raw/usb_fixture/2024/uniontribune_clipping.html"}}, {"type": "Feature", "id": "ev_8e9b1b86cf057d3a", "geometry": {"type": "Point", "coordinates": [-90.193056, 38.6225]}, "properties": {"event_id": "ev_8e9b1b86cf057d3a", "mentions": 1, "event_ids": ["ev_8e9b1b86cf057d3a"], "sources": ["St. Louis Post-Dispatch 2005-11-02"], "venue_id": "wd-Q253546", "venue_name": "Busch Stadium", "venue_name_as_written": "Busch Stadium", "operator": "Aramark Corp.", "operator_normalized": "Aramark", "sub_brand": null, "event_type": "won", "event_date": "2005-11-01", "event_year": 2005, "date_precision": "exact", "contract_value_usd": 30000000, "extraction_confidence": 0.95, "needs_review": false, "source_publication": "St. Louis Post-Dispatch", "source_date": "2005-11-02", "source_title": "Cardinals pick concessionaire for new ballpark", "source_file": "_rehearsal/raw/usb_fixture/2005/postdispatch_nexis.txt"}}, {"type": "Feature", "id": "ev_295478b746075249", "geometry": {"type": "Point", "coordinates": [-90.193056, 38.6225]}, "properties": {"event_id": "ev_295478b746075249", "mentions": 1, "event_ids": ["ev_295478b746075249"], "sources": ["St. Louis Post-Dispatch 2005-11-02"], "venue_id": "wd-Q253546", "venue_name": "Busch Stadium", "venue_name_as_written": "Busch Stadium", "operator": "Sportservice", "operator_normalized": "Delaware North", "sub_brand": "Sportservice", "event_type": "lost", "event_date": "2005-11-01", "event_year": 2005, "date_precision": "exact", "contract_value_usd": null, "extraction_confidence": 0.8, "needs_review": false, "source_publication": "St. Louis Post-Dispatch", "source_date": "2005-11-02", "source_title": "Cardinals pick concessionaire for new ballpark", "source_file": "_rehearsal/raw/usb_fixture/2005/postdispatch_nexis.txt"}}, {"type": "Feature", "id": "ev_b0120358f3594527", "geometry": {"type": "Point", "coordinates": [-90.193056, 38.6225]}, "properties": {"event_id": "ev_b0120358f3594527", "mentions": 1, "event_ids": ["ev_b0120358f3594527"], "sources": ["St. Louis Business Journal; St. Louis, Mo. 2019-03-05"], "venue_id": "wd-Q253546", "venue_name": "Busch Stadium", "venue_name_as_written": "Busch Stadium", "operator": "Sportservice", "operator_normalized": "Delaware North", "sub_brand": "Sportservice", "event_type": "won", "event_date": "2019-03-01", "event_year": 2019, "date_precision": "month", "contract_value_usd": null, "extraction_confidence": 0.9, "needs_review": false, "source_publication": "St. Louis Business Journal; St. Louis, Mo.", "source_date": "2019-03-05", "source_title": "Delaware North takes over Busch Stadium concessions", "source_file": "_rehearsal/raw/usb_fixture/2019/proquest_export.txt"}}]}