{"type": "FeatureCollection", "features": [{"type": "Feature", "id": "sp-41f1197ed2", "geometry": {"type": "Point", "coordinates": [-117.156944, 32.707333]}, "properties": {"tenure_id": "sp-41f1197ed2", "venue_id": "wd-Q1194586", "venue_name": "Petco Park", "venue_type": "stadium", "city": "San Diego", "state": "CA", "operator": "Sodexo", "operator_normalized": "Sodexo", "start_date": "2024-06-10", "end_date": null, "end_status": "ongoing", "exit_mode": null, "start_year": 2024, "render_end_year": 2026, "render_end_basis": "still held as of last coverage", "start_is_known": true, "end_inferred": false, "needs_review": false, "event_count": 1, "source": "The San Diego Union-Tribune 2024-06-10"}}, {"type": "Feature", "id": "sp-81d6039fa5", "geometry": {"type": "Point", "coordinates": [-90.193056, 38.6225]}, "properties": {"tenure_id": "sp-81d6039fa5", "venue_id": "wd-Q253546", "venue_name": "Busch Stadium", "venue_type": "stadium", "city": "St. Louis", "state": "MO", "operator": "Aramark", "operator_normalized": "Aramark", "start_date": "2005-11-01", "end_date": "2019-03-01", "end_status": "ended", "exit_mode": "unknown", "start_year": 2005, "render_end_year": 2019, "render_end_basis": "reported end", "start_is_known": true, "end_inferred": true, "needs_review": true, "event_count": 1, "source": "St. Louis Post-Dispatch 2005-11-02"}}, {"type": "Feature", "id": "sp-79c9aac9a0", "geometry": {"type": "Point", "coordinates": [-90.193056, 38.6225]}, "properties": {"tenure_id": "sp-79c9aac9a0", "venue_id": "wd-Q253546", "venue_name": "Busch Stadium", "venue_type": "stadium", "city": "St. Louis", "state": "MO", "operator": "Delaware North", "operator_normalized": "Delaware North", "start_date": null, "end_date": "2005-11-01", "end_status": "ended", "exit_mode": "lost_bid", "start_year": null, "render_end_year": 2005, "render_end_basis": "reported end", "start_is_known": false, "end_inferred": false, "needs_review": true, "event_count": 1, "source": "St. Louis Post-Dispatch 2005-11-02"}}, {"type": "Feature", "id": "sp-6f9818f970", "geometry": {"type": "Point", "coordinates": [-90.193056, 38.6225]}, "properties": {"tenure_id": "sp-6f9818f970", "venue_id": "wd-Q253546", "venue_name": "Busch Stadium", "venue_type": "stadium", "city": "St. Louis", "state": "MO", "operator": "Delaware North", "operator_normalized": "Delaware North", "start_date": "2019-03-01", "end_date": null, "end_status": "unknown", "exit_mode": null, "start_year": 2019, "render_end_year": 2019, "render_end_basis": "evidence stops here; the end is unknown", "start_is_known": true, "end_inferred": false, "needs_review": false, "event_count": 1, "source": "St. Louis Business Journal; St. Louis, Mo. 2019-03-05"}}]}